{
  "type": "FeatureCollection",
  "features": [
    {
      "type": "Feature",
      "properties": {
        "norad_id": 31192,
        "name": "FENGYUN 1C DEB",
        "group": "fengyun-1c-debris",
        "lat": 43.06567616742227,
        "lon": -31.308339902246765,
        "alt_km": 675.3321392271027,
        "timestamp": "2025-12-19T06:59:44.189561+00:00",
        "meta_object_name": "FENGYUN 1C DEB",
        "meta_object_id": "1999-025BJW",
        "meta_epoch": "2025-12-18T05:26:47.399136",
        "meta_mean_motion": 14.20969234,
        "meta_eccentricity": 0.02596771,
        "meta_inclination": 98.5531,
        "meta_ra_of_asc_node": 335.7459,
        "meta_arg_of_pericenter": 87.8687,
        "meta_mean_anomaly": 275.22,
        "meta_ephemeris_type": 0,
        "meta_classification_type": "U",
        "meta_norad_cat_id": 31192,
        "meta_element_set_no": 999,
        "meta_rev_at_epoch": 96821,
        "meta_bstar": 0.00023851293,
        "meta_mean_motion_dot": 6.81e-06,
        "meta_mean_motion_ddot": 0,
        "tle_line1": "1 31192U 99025BJW 25352.22693749  .00000681  00000+0  23851-3 0  9996",
        "tle_line2": "2 31192  98.5531 335.7459 0259677  87.8687 275.2200 14.20969234968219"
      },
      "geometry": {
        "type": "Point",
        "coordinates": [
          -31.308339902246765,
          43.06567616742227
        ]
      }
    },
    {
      "type": "Feature",
      "properties": {
        "norad_id": 31194,
        "name": "FENGYUN 1C DEB",
        "group": "fengyun-1c-debris",
        "lat": -19.13530927135629,
        "lon": -114.23337431219399,
        "alt_km": 767.865466988811,
        "timestamp": "2025-12-19T06:59:44.189571+00:00",
        "meta_object_name": "FENGYUN 1C DEB",
        "meta_object_id": "1999-025BJY",
        "meta_epoch": "2025-12-18T16:02:32.786592",
        "meta_mean_motion": 14.366832,
        "meta_eccentricity": 0.00569963,
        "meta_inclination": 98.9643,
        "meta_ra_of_asc_node": 241.9787,
        "meta_arg_of_pericenter": 261.6407,
        "meta_mean_anomaly": 97.8313,
        "meta_ephemeris_type": 0,
        "meta_classification_type": "U",
        "meta_norad_cat_id": 31194,
        "meta_element_set_no": 999,
        "meta_rev_at_epoch": 97212,
        "meta_bstar": 0.00075351582,
        "meta_mean_motion_dot": 2.213e-05,
        "meta_mean_motion_ddot": 0,
        "tle_line1": "1 31194U 99025BJY 25352.66843503  .00002213  00000+0  75352-3 0  9997",
        "tle_line2": "2 31194  98.9643 241.9787 0056996 261.6407  97.8313 14.36683200972123"
      },
      "geometry": {
        "type": "Point",
        "coordinates": [
          -114.23337431219399,
          -19.13530927135629
        ]
      }
    },
    {
      "type": "Feature",
      "properties": {
        "norad_id": 31195,
        "name": "FENGYUN 1C DEB",
        "group": "fengyun-1c-debris",
        "lat": 6.113429742351313,
        "lon": -152.61868919538696,
        "alt_km": 745.7986633598084,
        "timestamp": "2025-12-19T06:59:44.189582+00:00",
        "meta_object_name": "FENGYUN 1C DEB",
        "meta_object_id": "1999-025BJZ",
        "meta_epoch": "2025-12-18T13:07:20.480448",
        "meta_mean_motion": 14.07982413,
        "meta_eccentricity": 0.01721725,
        "meta_inclination": 98.7785,
        "meta_ra_of_asc_node": 25.7085,
        "meta_arg_of_pericenter": 164.8261,
        "meta_mean_anomaly": 195.8165,
        "meta_ephemeris_type": 0,
        "meta_classification_type": "U",
        "meta_norad_cat_id": 31195,
        "meta_element_set_no": 999,
        "meta_rev_at_epoch": 96180,
        "meta_bstar": 9.7795653e-05,
        "meta_mean_motion_dot": 1.48e-06,
        "meta_mean_motion_ddot": 0,
        "tle_line1": "1 31195U 99025BJZ 25352.54676482  .00000148  00000+0  97796-4 0  9997",
        "tle_line2": "2 31195  98.7785  25.7085 0172172 164.8261 195.8165 14.07982413961808"
      },
      "geometry": {
        "type": "Point",
        "coordinates": [
          -152.61868919538696,
          6.113429742351313
        ]
      }
    },
    {
      "type": "Feature",
      "properties": {
        "norad_id": 31196,
        "name": "FENGYUN 1C DEB",
        "group": "fengyun-1c-debris",
        "lat": 9.502685598994745,
        "lon": -172.22755787305823,
        "alt_km": 769.9192192697919,
        "timestamp": "2025-12-19T06:59:44.189592+00:00",
        "meta_object_name": "FENGYUN 1C DEB",
        "meta_object_id": "1999-025BKA",
        "meta_epoch": "2025-12-18T06:36:45.982080",
        "meta_mean_motion": 14.25472778,
        "meta_eccentricity": 0.00581332,
        "meta_inclination": 98.5263,
        "meta_ra_of_asc_node": 5.3458,
        "meta_arg_of_pericenter": 195.9048,
        "meta_mean_anomaly": 164.0308,
        "meta_ephemeris_type": 0,
        "meta_classification_type": "U",
        "meta_norad_cat_id": 31196,
        "meta_element_set_no": 999,
        "meta_rev_at_epoch": 63574,
        "meta_bstar": 0.00042579818,
        "meta_mean_motion_dot": 9.81e-06,
        "meta_mean_motion_ddot": 0,
        "tle_line1": "1 31196U 99025BKA 25352.27553220  .00000981  00000+0  42580-3 0  9997",
        "tle_line2": "2 31196  98.5263   5.3458 0058133 195.9048 164.0308 14.25472778635740"
      },
      "geometry": {
        "type": "Point",
        "coordinates": [
          -172.22755787305823,
          9.502685598994745
        ]
      }
    },
    {
      "type": "Feature",
      "properties": {
        "norad_id": 31198,
        "name": "FENGYUN 1C DEB",
        "group": "fengyun-1c-debris",
        "lat": 79.35205111792246,
        "lon": -29.750610011160955,
        "alt_km": 1050.3523637946455,
        "timestamp": "2025-12-19T06:59:44.189602+00:00",
        "meta_object_name": "FENGYUN 1C DEB",
        "meta_object_id": "1999-025BKC",
        "meta_epoch": "2025-12-18T13:04:37.352064",
        "meta_mean_motion": 13.75522626,
        "meta_eccentricity": 0.02035745,
        "meta_inclination": 98.6127,
        "meta_ra_of_asc_node": 95.858,
        "meta_arg_of_pericenter": 335.9369,
        "meta_mean_anomaly": 23.2373,
        "meta_ephemeris_type": 0,
        "meta_classification_type": "U",
        "meta_norad_cat_id": 31198,
        "meta_element_set_no": 999,
        "meta_rev_at_epoch": 62833,
        "meta_bstar": 8.5335381e-05,
        "meta_mean_motion_dot": 5.6e-07,
        "meta_mean_motion_ddot": 0,
        "tle_line1": "1 31198U 99025BKC 25352.54487676  .00000056  00000+0  85335-4 0  9999",
        "tle_line2": "2 31198  98.6127  95.8580 0203574 335.9369  23.2373 13.75522626628332"
      },
      "geometry": {
        "type": "Point",
        "coordinates": [
          -29.750610011160955,
          79.35205111792246
        ]
      }
    },
    {
      "type": "Feature",
      "properties": {
        "norad_id": 31199,
        "name": "FENGYUN 1C DEB",
        "group": "fengyun-1c-debris",
        "lat": -26.780325741037455,
        "lon": -19.696264852149678,
        "alt_km": 866.3022388939098,
        "timestamp": "2025-12-19T06:59:44.189612+00:00",
        "meta_object_name": "FENGYUN 1C DEB",
        "meta_object_id": "1999-025BKD",
        "meta_epoch": "2025-12-15T04:38:25.255104",
        "meta_mean_motion": 14.0998934,
        "meta_eccentricity": 0.0063456,
        "meta_inclination": 98.7153,
        "meta_ra_of_asc_node": 331.894,
        "meta_arg_of_pericenter": 252.6703,
        "meta_mean_anomaly": 169.1973,
        "meta_ephemeris_type": 0,
        "meta_classification_type": "U",
        "meta_norad_cat_id": 31199,
        "meta_element_set_no": 999,
        "meta_rev_at_epoch": 96194,
        "meta_bstar": 0.00023583272,
        "meta_mean_motion_dot": 3.81e-06,
        "meta_mean_motion_ddot": 0,
        "tle_line1": "1 31199U 99025BKD 25349.19334786  .00000381  00000+0  23583-3 0  9997",
        "tle_line2": "2 31199  98.7153 331.8940 0063456 252.6703 169.1973 14.09989340961947"
      },
      "geometry": {
        "type": "Point",
        "coordinates": [
          -19.696264852149678,
          -26.780325741037455
        ]
      }
    },
    {
      "type": "Feature",
      "properties": {
        "norad_id": 31201,
        "name": "FENGYUN 1C DEB",
        "group": "fengyun-1c-debris",
        "lat": 58.07329689584402,
        "lon": -160.2880206912902,
        "alt_km": 762.1742807865267,
        "timestamp": "2025-12-19T06:59:44.189622+00:00",
        "meta_object_name": "FENGYUN 1C DEB",
        "meta_object_id": "1999-025BKF",
        "meta_epoch": "2025-12-18T14:07:24.229632",
        "meta_mean_motion": 14.35196016,
        "meta_eccentricity": 0.01424341,
        "meta_inclination": 99.002,
        "meta_ra_of_asc_node": 213.7177,
        "meta_arg_of_pericenter": 334.2486,
        "meta_mean_anomaly": 53.2336,
        "meta_ephemeris_type": 0,
        "meta_classification_type": "U",
        "meta_norad_cat_id": 31201,
        "meta_element_set_no": 999,
        "meta_rev_at_epoch": 97335,
        "meta_bstar": 0.00067138893,
        "meta_mean_motion_dot": 2.101e-05,
        "meta_mean_motion_ddot": 0,
        "tle_line1": "1 31201U 99025BKF 25352.58847488  .00002101  00000+0  67139-3 0  9993",
        "tle_line2": "2 31201  99.0020 213.7177 0142434 334.2486  53.2336 14.35196016973350"
      },
      "geometry": {
        "type": "Point",
        "coordinates": [
          -160.2880206912902,
          58.07329689584402
        ]
      }
    }
  ]
}